{"fetched_at":"2026-03-29T16:36:15Z","count":15609,"tles":[{"name":"STARLINK-11428 [DTC]","line1":"1 62417U 24249J   26087.92263468  .00255376  00000+0  19265-2 0  9996","line2":"2 62417  43.0014  51.8953 0002027 243.0842 116.9818 15.70922714 72505","category":"Starlink"}]}